STARLINK - 2019-029AD              
1 44262U 19029AD  19146.90934553  .00000908  00000-0  34481-4 0  9999
2 44262  52.9964 162.0029 0003568 222.0690 249.2806 15.37837559   552